H1 CPF 01  gfz 2022 08 25 00  7371 terrasarx 
H2 0702601  6201 31698    2022 08 25 00 59 42 2022 08 30 00 00 42   120 1 1  0 0 0
H9
10 0 59818  79182.000000  0   -1374258.350    605154.699   6712240.033
10 0 59818  79302.000000  0   -1786423.344   1398680.300   6493655.290
10 0 59818  79422.000000  0   -2153682.044   2174618.669   6160947.825
10 0 59818  79542.000000  0   -2470048.312   2918579.140   5719930.130
10 0 59818  79662.000000  0   -2730665.256   3616622.737   5178316.587
10 0 59818  79782.000000  0   -2931882.079   4255526.647   4545595.557
10 0 59818  79902.000000  0   -3071306.508   4823040.454   3832868.498
10 0 59818  80022.000000  0   -3147831.259   5308128.533   3052658.491
10 0 59818  80142.000000  0   -3161633.649   5701192.370   2218690.214
10 0 59818  80262.000000  0   -3114148.762   5994267.064   1345646.094
10 0 59818  80382.000000  0   -3008016.131   6181188.210    448903.417
10 0 59818  80502.000000  0   -2847001.135   6257725.107   -455743.642
10 0 59818  80622.000000  0   -2635893.784   6221675.531  -1352371.606
10 0 59818  80742.000000  0   -2380385.949   6072918.526  -2225219.504
10 0 59818  80862.000000  0   -2086929.142   5813421.506  -3058974.143
10 0 59818  80982.000000  0   -1762579.915   5447207.720  -3839041.162
10 0 59818  81102.000000  0   -1414836.797   4980284.041  -4551801.270
10 0 59818  81222.000000  0   -1051472.425   4420530.611  -5184844.109
10 0 59818  81342.000000  0    -680364.883   3777558.110  -5727177.599
10 0 59818  81462.000000  0    -309331.014   3062533.832  -6169410.811
10 0 59818  81582.000000  0      54034.316   2287980.049  -6503905.814
10 0 59818  81702.000000  0     402508.827   1467551.745  -6724897.343
10 0 59818  81822.000000  0     729381.602    615796.872  -6828583.156
10 0 59818  81942.000000  0    1028578.664   -252098.197  -6813182.254
10 0 59818  82062.000000  0    1294772.471  -1120574.490  -6678961.442
10 0 59818  82182.000000  0    1523474.030  -1973972.089  -6428229.700
10 0 59818  82302.000000  0    1711107.419  -2796804.737  -6065303.328
10 0 59818  82422.000000  0    1855065.825  -3574035.850  -5596441.117
10 0 59818  82542.000000  0    1953747.348  -4291353.632  -5029747.370
10 0 59818  82662.000000  0    2006570.134  -4935436.048  -4375041.160
10 0 59818  82782.000000  0    2013966.773  -5494202.122  -3643697.346
10 0 59818  82902.000000  0    1977357.486  -5957047.329  -2848458.457
10 0 59818  83022.000000  0    1899101.654  -6315056.104  -2003218.743
10 0 59818  83142.000000  0    1782428.691  -6561184.496  -1122782.779
10 0 59818  83262.000000  0    1631350.759  -6690409.947   -222605.225
10 0 59818  83382.000000  0    1450558.433  -6699841.808    681487.379
10 0 59818  83502.000000  0    1245301.104  -6588789.430   1573581.027
10 0 59818  83622.000000  0    1021255.620  -6358787.906   2437964.800
10 0 59818  83742.000000  0     784386.998  -6013575.314   3259416.863
10 0 59818  83862.000000  0     540803.168  -5559026.832   4023479.159
10 0 59818  83982.000000  0     296609.351  -5003047.273   4716715.823
10 0 59818  84102.000000  0      57764.943  -4355424.383   5326951.280
10 0 59818  84222.000000  0    -170053.248  -3627646.409   5843482.950
10 0 59818  84342.000000  0    -381577.929  -2832688.272   6257265.643
10 0 59818  84462.000000  0    -572066.823  -1984772.188   6561062.704
10 0 59818  84582.000000  0    -737403.996  -1099110.062   6749565.570
10 0 59818  84702.000000  0    -874185.262   -191629.011   6819482.301
10 0 59818  84822.000000  0    -979786.730    721316.037   6769592.099
10 0 59818  84942.000000  0   -1052414.485   1623236.876   6600765.064
10 0 59818  85062.000000  0   -1091134.685   2497809.061   6315947.817
10 0 59818  85182.000000  0   -1095884.473   3329167.210   5920115.447
10 0 59818  85302.000000  0   -1067463.493   4102194.578   5420189.705
10 0 59818  85422.000000  0   -1007505.085   4802801.385   4824923.961
10 0 59818  85542.000000  0    -918429.227   5418188.677   4144756.179
10 0 59818  85662.000000  0    -803376.433   5937090.211   3391628.988
10 0 59818  85782.000000  0    -666125.791   6349987.857   2578784.352
10 0 59818  85902.000000  0    -510997.754   6649299.213   1720528.875
10 0 59818  86022.000000  0    -342741.999   6829524.552    831976.416
10 0 59818  86142.000000  0    -166415.416   6887353.770    -71224.240
10 0 59818  86262.000000  0      12747.247   6821730.861   -973173.111
10 0 59818  86382.000000  0     189466.987   6633871.877  -1858009.365
10 0 59819    102.000000  0     358553.167   6327235.025  -2710198.122
10 0 59819    222.000000  0     515032.989   5907448.040  -3514807.863
10 0 59819    342.000000  0     654275.379   5382194.128  -4257774.527
10 0 59819    462.000000  0     772105.886   4761058.856  -4926146.374
10 0 59819    582.000000  0     864909.924   4055342.983  -5508304.825
10 0 59819    702.000000  0     929721.908   3277846.608  -5994158.374
10 0 59819    822.000000  0     964298.187   2442629.159  -6375307.583
10 0 59819    942.000000  0     967173.373   1564750.949  -6645178.157
10 0 59819   1062.000000  0     937698.616    660002.558  -6799123.593
10 0 59819   1182.000000  0     876061.721   -255375.801  -6834497.177
10 0 59819   1302.000000  0     783288.822  -1164980.579  -6750692.021
10 0 59819   1422.000000  0     661227.242  -2052531.333  -6549148.547
10 0 59819   1542.000000  0     512510.870  -2902153.379  -6233332.941
10 0 59819   1662.000000  0     340507.170  -3698657.574  -5808686.362
10 0 59819   1782.000000  0     149246.824  -4427810.594  -5282539.584
10 0 59819   1902.000000  0     -56661.896  -5076590.373  -4663997.567
10 0 59819   2022.000000  0    -272134.255  -5633424.504  -3963793.560
10 0 59819   2142.000000  0    -491723.383  -6088406.063  -3194112.461
10 0 59819   2262.000000  0    -709745.491  -6433481.089  -2368385.958
10 0 59819   2382.000000  0    -920413.581  -6662604.441  -1501062.345
10 0 59819   2502.000000  0   -1117976.247  -6771858.616   -607352.850
10 0 59819   2622.000000  0   -1296858.191  -6759530.885    297039.435
10 0 59819   2742.000000  0   -1451799.119  -6626146.930   1196202.017
10 0 59819   2862.000000  0   -1577987.674  -6374459.936   2074301.455
10 0 59819   2982.000000  0   -1671186.228  -6009394.278   2915871.642
10 0 59819   3102.000000  0   -1727843.384  -5537944.898   3706094.595
10 0 59819   3222.000000  0   -1745190.677  -4969035.618   4431067.298
10 0 59819   3342.000000  0   -1721321.721  -4313341.264   5078048.355
10 0 59819   3462.000000  0   -1655253.226  -3583078.820   5635682.444
10 0 59819   3582.000000  0   -1546965.037  -2791769.521   6094197.709
10 0 59819   3702.000000  0   -1397417.995  -1953980.490   6445570.653
10 0 59819   3822.000000  0   -1208550.800  -1085052.804   6683660.113
10 0 59819   3942.000000  0    -983256.852   -200817.655   6804309.172
10 0 59819   4062.000000  0    -725340.808    682692.593   6805412.407
10 0 59819   4182.000000  0    -439454.302   1549534.288   6686950.997
10 0 59819   4302.000000  0    -131011.907   2384139.896   6450993.118
10 0 59819   4422.000000  0     193910.911   3171597.349   6101659.796
10 0 59819   4542.000000  0     528695.635   3897917.389   5645057.566
10 0 59819   4662.000000  0     866312.916   4550285.646   5089177.417
10 0 59819   4782.000000  0    1199467.552   5117294.370   4443760.982
10 0 59819   4902.000000  0    1520752.567   5589149.266   3720134.221
10 0 59819   5022.000000  0    1822809.631   5957847.603   2931014.496
10 0 59819   5142.000000  0    2098495.185   6217325.483   2090286.393
10 0 59819   5262.000000  0    2341042.406   6363565.501   1212753.060
10 0 59819   5382.000000  0    2544219.285   6394663.195    313868.559
10 0 59819   5502.000000  0    2702476.368   6310850.231   -590541.681
10 0 59819   5622.000000  0    2811082.026   6114476.007  -1484567.440
10 0 59819   5742.000000  0    2866241.626   5809946.513  -2352501.434
10 0 59819   5862.000000  0    2865197.339   5403622.915  -3179122.039
10 0 59819   5982.000000  0    2806306.037   4903681.349  -3949965.289
10 0 59819   6102.000000  0    2689092.919   4319938.408  -4651578.399
10 0 59819   6222.000000  0    2514280.402   3663648.825  -5271750.932
10 0 59819   6342.000000  0    2283792.893   2947280.447  -5799720.112
10 0 59819   6462.000000  0    2000737.621   2184271.238  -6226348.562
10 0 59819   6582.000000  0    1669361.493   1388773.649  -6544270.785
10 0 59819   6702.000000  0    1294986.962    575392.787  -6748008.588
10 0 59819   6822.000000  0     883926.528   -241078.190  -6834056.700
10 0 59819   6942.000000  0     443376.401  -1045922.428  -6800936.330
10 0 59819   7062.000000  0     -18707.084  -1824758.024  -6649216.054
10 0 59819   7182.000000  0    -493746.761  -2563787.313  -6381503.472
10 0 59819   7302.000000  0    -972699.905  -3250037.249  -6002406.869
10 0 59819   7422.000000  0   -1446225.713  -3871585.101  -5518463.311
10 0 59819   7542.000000  0   -1904862.905  -4417766.136  -4938037.303
10 0 59819   7662.000000  0   -2339215.779  -4879361.970  -4271188.298
10 0 59819   7782.000000  0   -2740145.176  -5248763.910  -3529506.419
10 0 59819   7902.000000  0   -3098959.581  -5520107.214  -2725919.197
10 0 59819   8022.000000  0   -3407602.696  -5689374.135  -1874471.965
10 0 59819   8142.000000  0   -3658833.603  -5754462.609   -990084.125
10 0 59819   8262.000000  0   -3846394.005  -5715217.445    -88284.813
10 0 59819   8382.000000  0   -3965157.529  -5573422.211    815065.879
10 0 59819   8502.000000  0   -4011257.735  -5332751.988   1704064.171
10 0 59819   8622.000000  0   -3982190.869  -4998686.977   2563052.227
10 0 59819   8742.000000  0   -3876890.457  -4578389.599   3376902.185
10 0 59819   8862.000000  0   -3695772.643  -4080549.390   4131289.265
10 0 59819   8982.000000  0   -3440750.655  -3515198.647   4812948.646
10 0 59819   9102.000000  0   -3115218.440  -2893503.601   5409909.453
10 0 59819   9222.000000  0   -2724004.655  -2227538.157   5911702.559
99
